IRIDIUM 150             
1 43257U 18030J   25197.14295548 -.00000016  00000+0 -12926-4 0  9997
2 43257  86.3936  70.9560 0001779  85.5931 274.5468 14.34217351382011
IRIDIUM 143             
1 43258U 18030K   25197.19369549 -.00000019  00000+0 -13885-4 0  9994
2 43258  86.3939  71.0143 0001564  88.2155 271.9220 14.34217456381960
IRIDIUM 161             
1 43478U 18047C   25196.63710279  .00000226  00000+0  61274-4 0  9997
2 43478  86.4475 229.0475 0002614  90.0139 270.1362 14.43279400376591
IRIDIUM 152             
1 43479U 18047D   25196.81757243  .00000014  00000+0 -19827-5 0  9994
2 43479  86.3949 228.8328 0002404  88.8987 271.2484 14.34217746374279
IRIDIUM 147             
1 43480U 18047E   25196.82391529  .00000010  00000+0 -33650-5 0  9994
2 43480  86.3951 228.8294 0002414  94.2376 265.9096 14.34217671374276
IRIDIUM 110             
1 43481U 18047F   25196.48141332  .00000150  00000+0  46651-4 0  9990
2 43481  86.3953 229.0555 0002836  89.4166 270.7354 14.34219233374214
IRIDIUM 162             
1 43482U 18047G   25196.83879202  .00000216  00000+0  58336-4 0  9990
2 43482  86.4474 228.8582 0002614  86.2032 273.9468 14.43278113376611
IRIDIUM 160             
1 43569U 18061A   25196.91563048 -.00000037  00000+0 -20362-4 0  9990
2 43569  86.3990 197.2834 0002429  88.0690 272.0784 14.34217401365175
